[{"OBJECT_NAME":"STARLINK-31792","OBJECT_ID":"2024-118V","EPOCH":"2026-03-09T06:15:31.253760","MEAN_MOTION":15.30184207,"ECCENTRICITY":0.00011861,"INCLINATION":53.1621,"RA_OF_ASC_NODE":26.3239,"ARG_OF_PERICENTER":132.0273,"MEAN_ANOMALY":228.0828,"EPHEMERIS_TYPE":0,"CLASSIFICATION_TYPE":"U","NORAD_CAT_ID":60132,"ELEMENT_SET_NO":999,"REV_AT_EPOCH":9566,"BSTAR":-5.1265367e-5,"MEAN_MOTION_DOT":-1.876e-5,"MEAN_MOTION_DDOT":0},{"OBJECT_NAME":"TEVEL2-1","OBJECT_ID":"2025-052H","EPOCH":"2026-03-09T15:32:51.927072","MEAN_MOTION":15.30341923,"ECCENTRICITY":0.0004767,"INCLINATION":97.3991,"RA_OF_ASC_NODE":324.7682,"ARG_OF_PERICENTER":104.8919,"MEAN_ANOMALY":255.2849,"EPHEMERIS_TYPE":0,"CLASSIFICATION_TYPE":"U","NORAD_CAT_ID":63217,"ELEMENT_SET_NO":999,"REV_AT_EPOCH":5485,"BSTAR":0.000706,"MEAN_MOTION_DOT":0.00020683,"MEAN_MOTION_DDOT":0}]
